CCSDS_OMM_VERS = 2.0
CREATION_DATE  = 
ORIGINATOR     = 

OBJECT_NAME    = STARLINK-36207
OBJECT_ID      = 2025-293M
CENTER_NAME    = EARTH
REF_FRAME      = TEME
TIME_SYSTEM    = UTC
MEAN_ELEMENT_THEORY = SGP/SGP4

EPOCH          = 2026-01-03T06:00:02.000160
MEAN_MOTION    = 15.52640562
ECCENTRICITY   = .00032935
INCLINATION    = 69.9995
RA_OF_ASC_NODE = 262.5515
ARG_OF_PERICENTER = 281.7497
MEAN_ANOMALY   = 244.1876

EPHEMERIS_TYPE = 0
CLASSIFICATION_TYPE = U
NORAD_CAT_ID   = 67014
ELEMENT_SET_NO = 999
REV_AT_EPOCH   = 361
BSTAR          = -.4086002E-2
MEAN_MOTION_DOT = -.245032E-2
MEAN_MOTION_DDOT = 0

CCSDS_OMM_VERS = 2.0
CREATION_DATE  = 
ORIGINATOR     = 

OBJECT_NAME    = STARLINK-36093
OBJECT_ID      = 2025-293N
CENTER_NAME    = EARTH
REF_FRAME      = TEME
TIME_SYSTEM    = UTC
MEAN_ELEMENT_THEORY = SGP/SGP4

EPOCH          = 2026-01-03T06:00:02.000160
MEAN_MOTION    = 15.52671470
ECCENTRICITY   = .00031408
INCLINATION    = 69.9995
RA_OF_ASC_NODE = 262.5477
ARG_OF_PERICENTER = 273.6681
MEAN_ANOMALY   = 256.1039

EPHEMERIS_TYPE = 0
CLASSIFICATION_TYPE = U
NORAD_CAT_ID   = 67015
ELEMENT_SET_NO = 999
REV_AT_EPOCH   = 355
BSTAR          = -.50889225E-2
MEAN_MOTION_DOT = -.303264E-2
MEAN_MOTION_DDOT = 0

CCSDS_OMM_VERS = 2.0
CREATION_DATE  = 
ORIGINATOR     = 

OBJECT_NAME    = STARLINK-36120
OBJECT_ID      = 2025-293P
CENTER_NAME    = EARTH
REF_FRAME      = TEME
TIME_SYSTEM    = UTC
MEAN_ELEMENT_THEORY = SGP/SGP4

EPOCH          = 2026-01-03T06:00:02.000160
MEAN_MOTION    = 15.52585161
ECCENTRICITY   = .00028594
INCLINATION    = 69.9996
RA_OF_ASC_NODE = 262.5498
ARG_OF_PERICENTER = 274.6764
MEAN_ANOMALY   = 253.1164

EPHEMERIS_TYPE = 0
CLASSIFICATION_TYPE = U
NORAD_CAT_ID   = 67016
ELEMENT_SET_NO = 999
REV_AT_EPOCH   = 355
BSTAR          = -.13674936E-2
MEAN_MOTION_DOT = -.83612E-3
MEAN_MOTION_DDOT = 0

CCSDS_OMM_VERS = 2.0
CREATION_DATE  = 
ORIGINATOR     = 

OBJECT_NAME    = STARLINK-35498
OBJECT_ID      = 2025-293Q
CENTER_NAME    = EARTH
REF_FRAME      = TEME
TIME_SYSTEM    = UTC
MEAN_ELEMENT_THEORY = SGP/SGP4

EPOCH          = 2026-01-03T06:00:02.000160
MEAN_MOTION    = 15.52696166
ECCENTRICITY   = .0003123
INCLINATION    = 69.9996
RA_OF_ASC_NODE = 262.5448
ARG_OF_PERICENTER = 272.5050
MEAN_ANOMALY   = 259.1752

EPHEMERIS_TYPE = 0
CLASSIFICATION_TYPE = U
NORAD_CAT_ID   = 67017
ELEMENT_SET_NO = 999
REV_AT_EPOCH   = 375
BSTAR          = -.58445845E-2
MEAN_MOTION_DOT = -.346706E-2
MEAN_MOTION_DDOT = 0

CCSDS_OMM_VERS = 2.0
CREATION_DATE  = 
ORIGINATOR     = 

OBJECT_NAME    = STARLINK-36106
OBJECT_ID      = 2025-293R
CENTER_NAME    = EARTH
REF_FRAME      = TEME
TIME_SYSTEM    = UTC
MEAN_ELEMENT_THEORY = SGP/SGP4

EPOCH          = 2026-01-03T06:00:02.000160
MEAN_MOTION    = 15.52612782
ECCENTRICITY   = .00032148
INCLINATION    = 69.9994
RA_OF_ASC_NODE = 262.5432
ARG_OF_PERICENTER = 273.2307
MEAN_ANOMALY   = 260.3783

EPHEMERIS_TYPE = 0
CLASSIFICATION_TYPE = U
NORAD_CAT_ID   = 67018
ELEMENT_SET_NO = 999
REV_AT_EPOCH   = 366
BSTAR          = -.29806599E-2
MEAN_MOTION_DOT = -.180058E-2
MEAN_MOTION_DDOT = 0

CCSDS_OMM_VERS = 2.0
CREATION_DATE  = 
ORIGINATOR     = 

OBJECT_NAME    = STARLINK-35688
OBJECT_ID      = 2025-293S
CENTER_NAME    = EARTH
REF_FRAME      = TEME
TIME_SYSTEM    = UTC
MEAN_ELEMENT_THEORY = SGP/SGP4

EPOCH          = 2026-01-03T06:00:02.000160
MEAN_MOTION    = 15.52650858
ECCENTRICITY   = .00032088
INCLINATION    = 69.9995
RA_OF_ASC_NODE = 262.5401
ARG_OF_PERICENTER = 277.5496
MEAN_ANOMALY   = 257.9697

EPHEMERIS_TYPE = 0
CLASSIFICATION_TYPE = U
NORAD_CAT_ID   = 67019
ELEMENT_SET_NO = 999
REV_AT_EPOCH   = 375
BSTAR          = -.43552519E-2
MEAN_MOTION_DOT = -.26075E-2
MEAN_MOTION_DDOT = 0

CCSDS_OMM_VERS = 2.0
CREATION_DATE  = 
ORIGINATOR     = 

OBJECT_NAME    = STARLINK-36172
OBJECT_ID      = 2025-293T
CENTER_NAME    = EARTH
REF_FRAME      = TEME
TIME_SYSTEM    = UTC
MEAN_ELEMENT_THEORY = SGP/SGP4

EPOCH          = 2026-01-03T06:00:02.000160
MEAN_MOTION    = 15.52638416
ECCENTRICITY   = .00032613
INCLINATION    = 69.9993
RA_OF_ASC_NODE = 262.5378
ARG_OF_PERICENTER = 276.9978
MEAN_ANOMALY   = 260.4422

EPHEMERIS_TYPE = 0
CLASSIFICATION_TYPE = U
NORAD_CAT_ID   = 67020
ELEMENT_SET_NO = 999
REV_AT_EPOCH   = 366
BSTAR          = -.39817787E-2
MEAN_MOTION_DOT = -.238946E-2
MEAN_MOTION_DDOT = 0

CCSDS_OMM_VERS = 2.0
CREATION_DATE  = 
ORIGINATOR     = 

OBJECT_NAME    = STARLINK-36184
OBJECT_ID      = 2025-293U
CENTER_NAME    = EARTH
REF_FRAME      = TEME
TIME_SYSTEM    = UTC
MEAN_ELEMENT_THEORY = SGP/SGP4

EPOCH          = 2026-01-03T06:00:02.000160
MEAN_MOTION    = 15.52692871
ECCENTRICITY   = .00031164
INCLINATION    = 69.9995
RA_OF_ASC_NODE = 262.5356
ARG_OF_PERICENTER = 271.3239
MEAN_ANOMALY   = 268.0267

EPHEMERIS_TYPE = 0
CLASSIFICATION_TYPE = U
NORAD_CAT_ID   = 67021
ELEMENT_SET_NO = 999
REV_AT_EPOCH   = 366
BSTAR          = -.57475385E-2
MEAN_MOTION_DOT = -.341146E-2
MEAN_MOTION_DDOT = 0

CCSDS_OMM_VERS = 2.0
CREATION_DATE  = 
ORIGINATOR     = 

OBJECT_NAME    = STARLINK-36209
OBJECT_ID      = 2025-293V
CENTER_NAME    = EARTH
REF_FRAME      = TEME
TIME_SYSTEM    = UTC
MEAN_ELEMENT_THEORY = SGP/SGP4

EPOCH          = 2026-01-03T06:00:02.000160
MEAN_MOTION    = 15.52618962
ECCENTRICITY   = .00032
INCLINATION    = 69.9995
RA_OF_ASC_NODE = 262.5337
ARG_OF_PERICENTER = 274.2757
MEAN_ANOMALY   = 266.9942

EPHEMERIS_TYPE = 0
CLASSIFICATION_TYPE = U
NORAD_CAT_ID   = 67022
ELEMENT_SET_NO = 999
REV_AT_EPOCH   = 366
BSTAR          = -.29142822E-2
MEAN_MOTION_DOT = -.176176E-2
MEAN_MOTION_DDOT = 0

CCSDS_OMM_VERS = 2.0
CREATION_DATE  = 
ORIGINATOR     = 

OBJECT_NAME    = STARLINK-36191
OBJECT_ID      = 2025-293W
CENTER_NAME    = EARTH
REF_FRAME      = TEME
TIME_SYSTEM    = UTC
MEAN_ELEMENT_THEORY = SGP/SGP4

EPOCH          = 2026-01-03T06:00:02.000160
MEAN_MOTION    = 15.52621557
ECCENTRICITY   = .00032558
INCLINATION    = 69.9994
RA_OF_ASC_NODE = 262.5313
ARG_OF_PERICENTER = 275.6958
MEAN_ANOMALY   = 267.4949

EPHEMERIS_TYPE = 0
CLASSIFICATION_TYPE = U
NORAD_CAT_ID   = 67023
ELEMENT_SET_NO = 999
REV_AT_EPOCH   = 355
BSTAR          = -.3319627E-2
MEAN_MOTION_DOT = -.200082E-2
MEAN_MOTION_DDOT = 0

CCSDS_OMM_VERS = 2.0
CREATION_DATE  = 
ORIGINATOR     = 

OBJECT_NAME    = STARLINK-36192
OBJECT_ID      = 2025-293X
CENTER_NAME    = EARTH
REF_FRAME      = TEME
TIME_SYSTEM    = UTC
MEAN_ELEMENT_THEORY = SGP/SGP4

EPOCH          = 2026-01-03T06:00:02.000160
MEAN_MOTION    = 15.52687947
ECCENTRICITY   = .00032809
INCLINATION    = 69.9992
RA_OF_ASC_NODE = 262.5287
ARG_OF_PERICENTER = 271.6630
MEAN_ANOMALY   = 273.4375

EPHEMERIS_TYPE = 0
CLASSIFICATION_TYPE = U
NORAD_CAT_ID   = 67024
ELEMENT_SET_NO = 999
REV_AT_EPOCH   = 366
BSTAR          = -.5587455E-2
MEAN_MOTION_DOT = -.331981E-2
MEAN_MOTION_DDOT = 0

CCSDS_OMM_VERS = 2.0
CREATION_DATE  = 
ORIGINATOR     = 

OBJECT_NAME    = STARLINK-36178
OBJECT_ID      = 2025-293Y
CENTER_NAME    = EARTH
REF_FRAME      = TEME
TIME_SYSTEM    = UTC
MEAN_ELEMENT_THEORY = SGP/SGP4

EPOCH          = 2026-01-03T06:00:02.000160
MEAN_MOTION    = 15.52688479
ECCENTRICITY   = .00030626
INCLINATION    = 69.9992
RA_OF_ASC_NODE = 262.5262
ARG_OF_PERICENTER = 271.5002
MEAN_ANOMALY   = 275.5167

EPHEMERIS_TYPE = 0
CLASSIFICATION_TYPE = U
NORAD_CAT_ID   = 67025
ELEMENT_SET_NO = 999
REV_AT_EPOCH   = 367
BSTAR          = -.56468455E-2
MEAN_MOTION_DOT = -.335356E-2
MEAN_MOTION_DDOT = 0

CCSDS_OMM_VERS = 2.0
CREATION_DATE  = 
ORIGINATOR     = 

OBJECT_NAME    = STARLINK-36176
OBJECT_ID      = 2025-293Z
CENTER_NAME    = EARTH
REF_FRAME      = TEME
TIME_SYSTEM    = UTC
MEAN_ELEMENT_THEORY = SGP/SGP4

EPOCH          = 2026-01-03T06:00:02.000160
MEAN_MOTION    = 15.52678714
ECCENTRICITY   = .00034619
INCLINATION    = 69.9994
RA_OF_ASC_NODE = 262.5224
ARG_OF_PERICENTER = 275.9738
MEAN_ANOMALY   = 274.8845

EPHEMERIS_TYPE = 0
CLASSIFICATION_TYPE = U
NORAD_CAT_ID   = 67026
ELEMENT_SET_NO = 999
REV_AT_EPOCH   = 367
BSTAR          = -.54150225E-2
MEAN_MOTION_DOT = -.322044E-2
MEAN_MOTION_DDOT = 0

CCSDS_OMM_VERS = 2.0
CREATION_DATE  = 
ORIGINATOR     = 

OBJECT_NAME    = STARLINK-36171
OBJECT_ID      = 2025-293AA
CENTER_NAME    = EARTH
REF_FRAME      = TEME
TIME_SYSTEM    = UTC
MEAN_ELEMENT_THEORY = SGP/SGP4

EPOCH          = 2026-01-03T06:00:02.000160
MEAN_MOTION    = 15.52667961
ECCENTRICITY   = .00033426
INCLINATION    = 69.9992
RA_OF_ASC_NODE = 262.5240
ARG_OF_PERICENTER = 270.0437
MEAN_ANOMALY   = 278.8967

EPHEMERIS_TYPE = 0
CLASSIFICATION_TYPE = U
NORAD_CAT_ID   = 67027
ELEMENT_SET_NO = 999
REV_AT_EPOCH   = 367
BSTAR          = -.50302159E-2
MEAN_MOTION_DOT = -.299869E-2
MEAN_MOTION_DDOT = 0

CCSDS_OMM_VERS = 2.0
CREATION_DATE  = 
ORIGINATOR     = 

OBJECT_NAME    = STARLINK-36132
OBJECT_ID      = 2025-293AB
CENTER_NAME    = EARTH
REF_FRAME      = TEME
TIME_SYSTEM    = UTC
MEAN_ELEMENT_THEORY = SGP/SGP4

EPOCH          = 2026-01-03T06:00:02.000160
MEAN_MOTION    = 15.52670832
ECCENTRICITY   = .00033356
INCLINATION    = 69.9994
RA_OF_ASC_NODE = 262.5170
ARG_OF_PERICENTER = 272.7423
MEAN_ANOMALY   = 281.9439

EPHEMERIS_TYPE = 0
CLASSIFICATION_TYPE = U
NORAD_CAT_ID   = 67028
ELEMENT_SET_NO = 999
REV_AT_EPOCH   = 367
BSTAR          = -.50996088E-2
MEAN_MOTION_DOT = -.303883E-2
MEAN_MOTION_DDOT = 0

